STARLINK-3504           
1 51881U 22022AF  26203.73926722 -.00000932  00000+0 -17002-4 0  9991
2 51881  53.1620 108.7172 0001276 103.4539 256.6605 15.33543039243745
STARLINK-3570           
1 51882U 22022AG  26203.74757525 -.00000448  00000+0 -26524-5 0  9998
2 51882  53.1622 107.9588 0001398  84.7913 275.3248 15.31705313243757
STARLINK-3576           
1 51883U 22022AH  26203.47714566 -.00003100  00000+0 -77932-4 0  9993
2 51883  53.1624 109.9926 0001386  64.2964 295.8182 15.35418877243646
STARLINK-3577           
1 51884U 22022AJ  26203.74957057  .00002252  00000+0  75426-4 0  9999
2 51884  53.1612 109.4462 0001439  93.3672 266.7496 15.35406886243767
STARLINK-3584           
1 51885U 22022AK  26203.02869967 -.00000337  00000+0  10680-5 0  9998
2 51885  53.1615 112.2186 0001078 102.4405 257.6718 15.33558832243573
STARLINK-3565           
1 51886U 22022AL  26203.48228790  .00012108  00000+0  75295-3 0  9991
2 51886  53.1747 113.5819 0002190  83.2329 276.8912 15.10018630243609
STARLINK-3551           
1 51887U 22022AM  26203.80190061  .00000980  00000+0  40126-4 0  9998
2 51887  53.1613 106.4477 0001304  93.2926 266.8226 15.34401230243721
STARLINK-3536           
1 51888U 22022AN  26203.75279452  .00002465  00000+0  86200-4 0  9998
2 51888  53.1621 108.8796 0001385  98.1514 261.9646 15.33571133243694
STARLINK-3547           
1 51889U 22022AP  26203.46370714  .00000702  00000+0  31911-4 0  9991
2 51889  53.1632 108.7142 0001351  88.4702 271.6456 15.34392269243661
STARLINK-3549           
1 51891U 22022AR  26203.72206411  .00001230  00000+0  47550-4 0  9998
2 51891  53.1616 106.8191 0001371  98.5976 261.5182 15.34388767243769
STARLINK-3587           
1 51892U 22022AS  26203.72845282  .00000866  00000+0  36762-4 0  9991
2 51892  53.1623 107.4827 0001204  90.4393 269.6748 15.34393281243708
STARLINK-3579           
1 51893U 22022AT  26203.76727164  .00011087  00000+0  68473-3 0  9994
2 51893  53.2154 112.3867 0002930  82.8936 277.2390 15.10356667243702
STARLINK-3595           
1 51894U 22022AU  26203.06658893  .00000608  00000+0  29142-4 0  9998
2 51894  53.1613 110.5803 0001158 109.9316 250.1811 15.34390552243666
STARLINK-3594           
1 51895U 22022AV  26203.44899828  .00001081  00000+0  43142-4 0  9998
2 51895  53.1617 108.7816 0001305  76.2679 283.8469 15.34396900243661
STARLINK-3593           
1 51896U 22022AW  26203.06488267  .00001580  00000+0  59354-4 0  9994
2 51896  53.1620 112.0404 0001494  92.6629 267.4544 15.33549341243630
STARLINK-3598           
1 51897U 22022AX  26203.06020792  .00000508  00000+0  26174-4 0  9993
2 51897  53.1627 109.9538 0001227  88.1456 271.9687 15.34389270243613
STARLINK-3597           
1 51898U 22022AY  26203.90067133  .00001321  00000+0  50222-4 0  9992
2 51898  53.1610 105.9993 0001337  85.2159 274.8997 15.34393147243790
2022-023A               
1 51946U 22023A   26203.93955809  .00007150  00000+0  30778-3 0  9995
2 51946  63.4833 149.0594 0111259 344.8218  14.9564 15.17984832243146
2022-023B               
1 51947U 22023B   26203.93623169  .00003494  00000+0  15871-3 0  9991
2 51947  63.4833 148.4590 0105343 349.0975  10.7854 15.17983350243140
2022-023C               
1 51948U 22023C   26203.94283307  .00007829  00000+0  33834-3 0  9994
2 51948  63.4909 149.8974 0108588 351.5289   8.3986 15.18002036243149
2022-023D               
1 51949U 22023D   26203.96136112  .00013800  00000+0  54882-3 0  9990
2 51949  63.4483 150.1485 0130505 354.8709   5.1056 15.17984908243145
2022-023E               
1 51950U 22023E   26203.96517068 -.00000052  00000+0  52321-4 0  9998
2 51950  63.4591 219.9970 0163002 348.3754  11.3532 13.56291247226884
2022-023F               
1 51951U 22023F   26203.91708542  .00011984  00000+0  47256-3 0  9998
2 51951  63.4454 152.0204 0133598 341.6043  18.0261 15.18014983243134
STARLINK-3700           
1 51956U 22025A   26203.74220946  .00000235  00000+0  19337-4 0  9990
2 51956  53.1608 105.2476 0001305  88.8518 271.2633 15.31706054241860
STARLINK-3694           
1 51957U 22025B   26203.80327138 -.00000384  00000+0 -60306-6 0  9990
2 51957  53.1609 128.1830 0001293  82.7564 277.3584 15.31703207241533
STARLINK-3692           
1 51958U 22025C   26203.01512182  .00000986  00000+0  43543-4 0  9997
2 51958  53.1603 108.5418 0001359  93.1208 266.9950 15.31704716241757
STARLINK-3704           
1 51959U 22025D   26203.79935391  .00001874  00000+0  72148-4 0  9994
2 51959  53.1607 128.7738 0001607  86.6315 273.4870 15.31693247241528
STARLINK-3691           
1 51960U 22025E   26203.52359143 -.00000147  00000+0  70429-5 0  9996
2 51960  53.1598 129.2968 0001260  91.3263 268.7883 15.31706251241497
STARLINK-3697           
1 51962U 22025G   26203.78159792  .00000112  00000+0  15391-4 0  9991
2 51962  53.1601 115.7110 0001361  91.8078 268.3079 15.31705110241715
STARLINK-3675           
1 51963U 22025H   26203.01046160  .00002416  00000+0  89574-4 0  9995
2 51963  53.1601 108.5618 0001309  86.1611 273.9540 15.31705667241757
