OBJECT_NAME,OBJECT_ID,EPOCH,MEAN_MOTION,ECCENTRICITY,INCLINATION,RA_OF_ASC_NODE,ARG_OF_PERICENTER,MEAN_ANOMALY,EPHEMERIS_TYPE,CLASSIFICATION_TYPE,NORAD_CAT_ID,ELEMENT_SET_NO,REV_AT_EPOCH,BSTAR,MEAN_MOTION_DOT,MEAN_MOTION_DDOT
STARLINK-3504,2022-022AF,2026-07-22T17:44:32.687808,15.33543039,.00012768,53.1620,108.7172,103.4539,256.6605,0,U,51881,999,24374,-.17001723E-4,-.932E-5,0
STARLINK-3570,2022-022AG,2026-07-22T17:56:30.501600,15.31705313,.00013981,53.1622,107.9588,84.7913,275.3248,0,U,51882,999,24375,-.2652435E-5,-.448E-5,0
STARLINK-3576,2022-022AH,2026-07-22T11:27:05.385024,15.35418877,.00013862,53.1624,109.9926,64.2964,295.8182,0,U,51883,999,24364,-.77931823E-4,-.31E-4,0
STARLINK-3577,2022-022AJ,2026-07-22T17:59:22.897248,15.35406886,.00014391,53.1612,109.4462,93.3672,266.7496,0,U,51884,999,24376,.75426132E-4,.2252E-4,0
STARLINK-3584,2022-022AK,2026-07-22T00:41:19.651488,15.33558832,.00010788,53.1615,112.2186,102.4405,257.6718,0,U,51885,999,24357,.1067984E-5,-.337E-5,0
STARLINK-3565,2022-022AL,2026-07-22T11:34:29.674560,15.10018630,.00021906,53.1747,113.5819,83.2329,276.8912,0,U,51886,999,24360,.75295435E-3,.12108E-3,0
STARLINK-3551,2022-022AM,2026-07-22T19:14:44.212704,15.34401230,.00013047,53.1613,106.4477,93.2926,266.8226,0,U,51887,999,24372,.40126078E-4,.98E-5,0
STARLINK-3536,2022-022AN,2026-07-22T18:04:01.446528,15.33571133,.00013853,53.1621,108.8796,98.1514,261.9646,0,U,51888,999,24369,.86199657E-4,.2465E-4,0
STARLINK-3547,2022-022AP,2026-07-22T11:07:44.296896,15.34392269,.00013513,53.1632,108.7142,88.4702,271.6456,0,U,51889,999,24366,.31911129E-4,.702E-5,0
STARLINK-3549,2022-022AR,2026-07-22T17:19:46.339104,15.34388767,.00013715,53.1616,106.8191,98.5976,261.5182,0,U,51891,999,24376,.47549743E-4,.123E-4,0
STARLINK-3587,2022-022AS,2026-07-22T17:28:58.323648,15.34393281,.00012049,53.1623,107.4827,90.4393,269.6748,0,U,51892,999,24370,.36762E-4,.866E-5,0
STARLINK-3579,2022-022AT,2026-07-22T18:24:52.269696,15.10356667,.00029309,53.2154,112.3867,82.8936,277.2390,0,U,51893,999,24370,.68473359E-3,.11087E-3,0
STARLINK-3595,2022-022AU,2026-07-22T01:35:53.283552,15.34390552,.00011587,53.1613,110.5803,109.9316,250.1811,0,U,51894,999,24366,.2914219E-4,.608E-5,0
STARLINK-3594,2022-022AV,2026-07-22T10:46:33.451392,15.34396900,.0001305,53.1617,108.7816,76.2679,283.8469,0,U,51895,999,24366,.43141906E-4,.1081E-4,0
STARLINK-3593,2022-022AW,2026-07-22T01:33:25.862688,15.33549341,.00014946,53.1620,112.0404,92.6629,267.4544,0,U,51896,999,24363,.59354133E-4,.158E-4,0
STARLINK-3598,2022-022AX,2026-07-22T01:26:41.964288,15.34389270,.00012278,53.1627,109.9538,88.1456,271.9687,0,U,51897,999,24361,.26173984E-4,.508E-5,0
STARLINK-3597,2022-022AY,2026-07-22T21:36:58.002912,15.34393147,.00013378,53.1610,105.9993,85.2159,274.8997,0,U,51898,999,24379,.50222309E-4,.1321E-4,0
2022-023A,2022-023A,2026-07-22T22:32:57.818976,15.17984832,.01112593,63.4833,149.0594,344.8218,14.9564,0,U,51946,999,24314,.30777574E-3,.715E-4,0
2022-023B,2022-023B,2026-07-22T22:28:10.418016,15.17983350,.01053434,63.4833,148.4590,349.0975,10.7854,0,U,51947,999,24314,.15871281E-3,.3494E-4,0
2022-023C,2022-023C,2026-07-22T22:37:40.777248,15.18002036,.0108588,63.4909,149.8974,351.5289,8.3986,0,U,51948,999,24314,.33834436E-3,.7829E-4,0
2022-023D,2022-023D,2026-07-22T23:04:21.600768,15.17984908,.01305052,63.4483,150.1485,354.8709,5.1056,0,U,51949,999,24314,.54882206E-3,.138E-3,0
2022-023E,2022-023E,2026-07-22T23:09:50.746752,13.56291247,.01630027,63.4591,219.9970,348.3754,11.3532,0,U,51950,999,22688,.5232146E-4,-.52E-6,0
2022-023F,2022-023F,2026-07-22T22:00:36.180288,15.18014983,.01335989,63.4454,152.0204,341.6043,18.0261,0,U,51951,999,24313,.4725649E-3,.11984E-3,0
STARLINK-3700,2022-025A,2026-07-22T17:48:46.897344,15.31706054,.00013052,53.1608,105.2476,88.8518,271.2633,0,U,51956,999,24186,.19337049E-4,.235E-5,0
STARLINK-3694,2022-025B,2026-07-22T19:16:42.647232,15.31703207,.00012939,53.1609,128.1830,82.7564,277.3584,0,U,51957,999,24153,-.603056E-6,-.384E-5,0
STARLINK-3692,2022-025C,2026-07-22T00:21:46.525248,15.31704716,.00013596,53.1603,108.5418,93.1208,266.9950,0,U,51958,999,24175,.43542694E-4,.986E-5,0
STARLINK-3704,2022-025D,2026-07-22T19:11:04.177824,15.31693247,.0001607,53.1607,128.7738,86.6315,273.4870,0,U,51959,999,24152,.72147831E-4,.1874E-4,0
STARLINK-3691,2022-025E,2026-07-22T12:33:58.299552,15.31706251,.00012608,53.1598,129.2968,91.3263,268.7883,0,U,51960,999,24149,.7042873E-5,-.147E-5,0
STARLINK-3697,2022-025G,2026-07-22T18:45:30.060288,15.31705110,.00013618,53.1601,115.7110,91.8078,268.3079,0,U,51962,999,24171,.1539068E-4,.112E-5,0
STARLINK-3675,2022-025H,2026-07-22T00:15:03.882240,15.31705667,.00013092,53.1601,108.5618,86.1611,273.9540,0,U,51963,999,24175,.89574155E-4,.2416E-4,0
